IRIDIUM 135             
1 43070U 17083A   26202.26837018 -.00000012  00000+0 -11296-4 0  9997
2 43070  86.3985 307.7701 0002113  94.9386 265.2052 14.34217467449037
IRIDIUM 138             
1 43071U 17083B   26202.22397118  .00000090  00000+0  25032-4 0  9993
2 43071  86.4000 307.4892 0002063  95.5579 264.5852 14.34217415449011
IRIDIUM 116             
1 43072U 17083C   26202.26202866  .00000162  00000+0  50691-4 0  9992
2 43072  86.3985 307.7582 0002508  97.0762 263.0719 14.34217462449059
IRIDIUM 130             
1 43073U 17083D   26202.30008328  .00000352  00000+0  11861-3 0  9991
2 43073  86.3996 308.0210 0002348 100.8728 259.2733 14.34219098449006
IRIDIUM 151             
1 43074U 17083E   26201.78633342  .00000072  00000+0  18788-4 0  9998
2 43074  86.3988 308.0154 0002268  95.1496 264.9958 14.34217842448954
IRIDIUM 134             
1 43075U 17083F   26202.24299990  .00000012  00000+0 -26250-5 0  9997
2 43075  86.3988 307.8334 0002249  96.1607 263.9845 14.34217691448985
IRIDIUM 137             
1 43076U 17083G   26202.25568596  .00000002  00000+0 -64077-5 0  9998
2 43076  86.3989 307.9215 0002535  90.2079 269.9408 14.34217565449052
IRIDIUM 141             
1 43077U 17083H   26202.24934301  .00000046  00000+0  95313-5 0  9993
2 43077  86.3985 307.7527 0002150  94.0156 266.1285 14.34217410449055
IRIDIUM 153             
1 43078U 17083J   26202.20152078  .00000005  00000+0 -52318-5 0  9997
2 43078  86.3954 276.2504 0002023  95.7564 264.3862 14.34217512450154
IRIDIUM 131             
1 43079U 17083K   26202.23665738 -.00000007  00000+0 -94997-5 0  9995
2 43079  86.3988 307.9462 0002090  93.2312 266.9123 14.34217467448980
IRIDIUM 144             
1 43249U 18030A   26202.13809530  .00000106  00000+0  30955-4 0  9997
2 43249  86.3953 276.2057 0002389  96.0008 264.1461 14.34217684435008
IRIDIUM 149             
1 43250U 18030B   26202.21420642 -.00000009  00000+0 -10365-4 0  9998
2 43250  86.3951 276.1402 0002122  93.7878 266.3561 14.34217398435035
IRIDIUM 157             
1 43251U 18030C   26202.16346576  .00000115  00000+0  33828-4 0  9991
2 43251  86.3950 276.2154 0002244  94.6864 265.4588 14.34218048435009
IRIDIUM 140             
1 43252U 18030D   26201.90341907  .00000154  00000+0  48015-4 0  9993
2 43252  86.3952 276.3367 0002270  95.5590 264.5865 14.34219158435027
IRIDIUM 145             
1 43253U 18030E   26202.16980916  .00000032  00000+0  45135-5 0  9998
2 43253  86.3950 276.1973 0002576  96.9652 263.1837 14.34217474434998
IRIDIUM 146             
1 43254U 18030F   26202.15078136  .00000002  00000+0 -62227-5 0  9999
2 43254  86.3953 276.2175 0002257  95.4771 264.6683 14.34217226435002
IRIDIUM 148             
1 43255U 18030G   26202.18883652  .00000122  00000+0  36488-4 0  9991
2 43255  86.3954 276.2457 0002305  94.1440 266.0020 14.34218145435046
IRIDIUM 142             
1 43256U 18030H   26202.15712364  .00000144  00000+0  44337-4 0  9996
2 43256  86.3951 276.1463 0002319  95.9732 264.1728 14.34217854435004
IRIDIUM 150             
1 43257U 18030J   26202.19517904  .00000019  00000+0 -28029-6 0  9998
2 43257  86.3953 276.2477 0002219  96.1849 263.9600 14.34217061435033
IRIDIUM 143             
1 43258U 18030K   26201.75754012  .00000076  00000+0  20145-4 0  9994
2 43258  86.3955 276.5247 0002331  95.7340 264.4121 14.34217885434903
IRIDIUM 161             
1 43478U 18047C   26202.14111188  .00000204  00000+0  54594-4 0  9999
2 43478  86.4456  74.2703 0002155  80.8951 279.2494 14.43277777430034
IRIDIUM 152             
1 43479U 18047D   26202.14886821 -.00000041  00000+0 -21631-4 0  9990
2 43479  86.3927  74.1280 0001956  83.7305 276.4114 14.34217496427350
IRIDIUM 147             
1 43480U 18047E   26202.15521117  .00000071  00000+0  18289-4 0  9993
2 43480  86.3932  74.1314 0002285  87.4801 272.6657 14.34217952427351
IRIDIUM 110             
1 43481U 18047F   26202.09178350  .00000236  00000+0  77183-4 0  9995
2 43481  86.3936  74.2509 0002012  78.3003 281.8418 14.34217749427333
IRIDIUM 162             
1 43482U 18047G   26202.13480584  .00000206  00000+0  55197-4 0  9994
2 43482  86.4454  74.1634 0002183  86.6728 273.4723 14.43280569430029
IRIDIUM 160             
1 43569U 18061A   26202.10738921  .00000093  00000+0  26006-4 0  9995
2 43569  86.3939  42.6078 0002203  86.8048 273.3399 14.34217955418230
IRIDIUM 166             
1 43570U 18061B   26202.06299198 -.00000009  00000+0 -10390-4 0  9998
2 43570  86.3932  42.5765 0002179  90.1361 270.0084 14.34217341418251
IRIDIUM 158             
1 43571U 18061C   26202.10104723  .00000148  00000+0  45926-4 0  9998
2 43571  86.3937  42.5703 0002113  89.1531 270.9907 14.34218056418228
IRIDIUM 165             
1 43572U 18061D   26202.26595516  .00000071  00000+0  18392-4 0  9992
2 43572  86.3943  42.5484 0002273  90.5813 269.5643 14.34217622418272
IRIDIUM 155             
1 43573U 18061E   26202.08836151  .00000097  00000+0  27714-4 0  9992
2 43573  86.3935  42.4901 0002164  90.4307 269.7137 14.34218158418212
